{
  "type": "FeatureCollection",
  "features": [
    {
      "type": "Feature",
      "properties": {
        "norad_id": 31288,
        "name": "FENGYUN 1C DEB",
        "group": "fengyun-1c-debris",
        "lat": 52.19841731221244,
        "lon": -6.79125008604,
        "alt_km": 578.8891741495345,
        "timestamp": "2025-12-27T22:26:48.884631+00:00",
        "meta_object_name": "FENGYUN 1C DEB",
        "meta_object_id": "1999-025BNW",
        "meta_epoch": "2025-12-27T05:02:07.678176",
        "meta_mean_motion": 14.97438425,
        "meta_eccentricity": 0.0022495,
        "meta_inclination": 98.7448,
        "meta_ra_of_asc_node": 160.9523,
        "meta_arg_of_pericenter": 255.742,
        "meta_mean_anomaly": 282.6559,
        "meta_ephemeris_type": 0,
        "meta_classification_type": "U",
        "meta_norad_cat_id": 31288,
        "meta_element_set_no": 999,
        "meta_rev_at_epoch": 97773,
        "meta_bstar": 0.0064444,
        "meta_mean_motion_dot": 0.00076089,
        "meta_mean_motion_ddot": 0,
        "tle_line1": "1 31288U 99025BNW 25361.20981109  .00076089  00000+0  64444-2 0  9997",
        "tle_line2": "2 31288  98.7448 160.9523 0022495 255.7420 282.6559 14.97438425977734"
      },
      "geometry": {
        "type": "Point",
        "coordinates": [
          -6.79125008604,
          52.19841731221244
        ]
      }
    },
    {
      "type": "Feature",
      "properties": {
        "norad_id": 31293,
        "name": "FENGYUN 1C DEB",
        "group": "fengyun-1c-debris",
        "lat": 55.629882564522525,
        "lon": -3.283521177325749,
        "alt_km": 855.4756409411866,
        "timestamp": "2025-12-27T22:26:48.884641+00:00",
        "meta_object_name": "FENGYUN 1C DEB",
        "meta_object_id": "1999-025BPB",
        "meta_epoch": "2025-12-27T07:04:19.327296",
        "meta_mean_motion": 14.30818427,
        "meta_eccentricity": 0.0126029,
        "meta_inclination": 98.4229,
        "meta_ra_of_asc_node": 8.6074,
        "meta_arg_of_pericenter": 201.5814,
        "meta_mean_anomaly": 158.003,
        "meta_ephemeris_type": 0,
        "meta_classification_type": "U",
        "meta_norad_cat_id": 31293,
        "meta_element_set_no": 999,
        "meta_rev_at_epoch": 65452,
        "meta_bstar": 7.7689e-05,
        "meta_mean_motion_dot": 1.78e-06,
        "meta_mean_motion_ddot": 0,
        "tle_line1": "1 31293U 99025BPB 25361.29466814  .00000178  00000+0  77689-4 0  9996",
        "tle_line2": "2 31293  98.4229   8.6074 0126029 201.5814 158.0030 14.30818427654527"
      },
      "geometry": {
        "type": "Point",
        "coordinates": [
          -3.283521177325749,
          55.629882564522525
        ]
      }
    },
    {
      "type": "Feature",
      "properties": {
        "norad_id": 31294,
        "name": "FENGYUN 1C DEB",
        "group": "fengyun-1c-debris",
        "lat": -4.175758566592618,
        "lon": -2.458622739588981,
        "alt_km": 806.898291789239,
        "timestamp": "2025-12-27T22:26:48.884651+00:00",
        "meta_object_name": "FENGYUN 1C DEB",
        "meta_object_id": "1999-025BPC",
        "meta_epoch": "2025-12-25T22:57:37.291104",
        "meta_mean_motion": 14.15338572,
        "meta_eccentricity": 0.0099077,
        "meta_inclination": 98.5439,
        "meta_ra_of_asc_node": 355.0165,
        "meta_arg_of_pericenter": 302.8872,
        "meta_mean_anomaly": 56.2798,
        "meta_ephemeris_type": 0,
        "meta_classification_type": "U",
        "meta_norad_cat_id": 31294,
        "meta_element_set_no": 999,
        "meta_rev_at_epoch": 97040,
        "meta_bstar": 0.00048177,
        "meta_mean_motion_dot": 9.41e-06,
        "meta_mean_motion_ddot": 0,
        "tle_line1": "1 31294U 99025BPC 25359.95668161  .00000941  00000+0  48177-3 0  9993",
        "tle_line2": "2 31294  98.5439 355.0165 0099077 302.8872  56.2798 14.15338572970402"
      },
      "geometry": {
        "type": "Point",
        "coordinates": [
          -2.458622739588981,
          -4.175758566592618
        ]
      }
    },
    {
      "type": "Feature",
      "properties": {
        "norad_id": 31295,
        "name": "FENGYUN 1C DEB",
        "group": "fengyun-1c-debris",
        "lat": 10.9547482629377,
        "lon": -176.1936119619802,
        "alt_km": 959.983090240481,
        "timestamp": "2025-12-27T22:26:48.884661+00:00",
        "meta_object_name": "FENGYUN 1C DEB",
        "meta_object_id": "1999-025BPD",
        "meta_epoch": "2025-12-27T12:04:42.433824",
        "meta_mean_motion": 13.96835457,
        "meta_eccentricity": 0.0077317,
        "meta_inclination": 98.3163,
        "meta_ra_of_asc_node": 185.0379,
        "meta_arg_of_pericenter": 209.3123,
        "meta_mean_anomaly": 150.3693,
        "meta_ephemeris_type": 0,
        "meta_classification_type": "U",
        "meta_norad_cat_id": 31295,
        "meta_element_set_no": 999,
        "meta_rev_at_epoch": 95709,
        "meta_bstar": 0.00022495,
        "meta_mean_motion_dot": 2.83e-06,
        "meta_mean_motion_ddot": 0,
        "tle_line1": "1 31295U 99025BPD 25361.50326891  .00000283  00000+0  22495-3 0  9993",
        "tle_line2": "2 31295  98.3163 185.0379 0077317 209.3123 150.3693 13.96835457957098"
      },
      "geometry": {
        "type": "Point",
        "coordinates": [
          -176.1936119619802,
          10.9547482629377
        ]
      }
    },
    {
      "type": "Feature",
      "properties": {
        "norad_id": 31296,
        "name": "FENGYUN 1C DEB",
        "group": "fengyun-1c-debris",
        "lat": -46.716772317616716,
        "lon": -71.68004035898463,
        "alt_km": 673.0987149182456,
        "timestamp": "2025-12-27T22:26:48.884671+00:00",
        "meta_object_name": "FENGYUN 1C DEB",
        "meta_object_id": "1999-025BPE",
        "meta_epoch": "2025-12-27T11:14:42.410688",
        "meta_mean_motion": 14.72213991,
        "meta_eccentricity": 0.0020254,
        "meta_inclination": 99.0654,
        "meta_ra_of_asc_node": 278.0397,
        "meta_arg_of_pericenter": 163.3193,
        "meta_mean_anomaly": 196.8682,
        "meta_ephemeris_type": 0,
        "meta_classification_type": "U",
        "meta_norad_cat_id": 31296,
        "meta_element_set_no": 999,
        "meta_rev_at_epoch": 97566,
        "meta_bstar": 0.0048,
        "meta_mean_motion_dot": 0.00030445,
        "meta_mean_motion_ddot": 0,
        "tle_line1": "1 31296U 99025BPE 25361.46854642  .00030445  00000+0  48000-2 0  9991",
        "tle_line2": "2 31296  99.0654 278.0397 0020254 163.3193 196.8682 14.72213991975663"
      },
      "geometry": {
        "type": "Point",
        "coordinates": [
          -71.68004035898463,
          -46.716772317616716
        ]
      }
    },
    {
      "type": "Feature",
      "properties": {
        "norad_id": 31297,
        "name": "FENGYUN 1C DEB",
        "group": "fengyun-1c-debris",
        "lat": -17.727030704004274,
        "lon": 142.8106052865733,
        "alt_km": 714.2087976305747,
        "timestamp": "2025-12-27T22:26:48.884681+00:00",
        "meta_object_name": "FENGYUN 1C DEB",
        "meta_object_id": "1999-025BPF",
        "meta_epoch": "2025-12-27T03:33:47.312064",
        "meta_mean_motion": 14.5712914,
        "meta_eccentricity": 0.01396402,
        "meta_inclination": 98.9353,
        "meta_ra_of_asc_node": 139.0841,
        "meta_arg_of_pericenter": 79.3017,
        "meta_mean_anomaly": 99.4334,
        "meta_ephemeris_type": 0,
        "meta_classification_type": "U",
        "meta_norad_cat_id": 31297,
        "meta_element_set_no": 999,
        "meta_rev_at_epoch": 99525,
        "meta_bstar": 0.00033993704,
        "meta_mean_motion_dot": 1.692e-05,
        "meta_mean_motion_ddot": 0,
        "tle_line1": "1 31297U 99025BPF 25361.14846426  .00001692  00000+0  33994-3 0  9997",
        "tle_line2": "2 31297  98.9353 139.0841 0139640  79.3017  99.4334 14.57129140995253"
      },
      "geometry": {
        "type": "Point",
        "coordinates": [
          142.8106052865733,
          -17.727030704004274
        ]
      }
    },
    {
      "type": "Feature",
      "properties": {
        "norad_id": 31300,
        "name": "FENGYUN 1C DEB",
        "group": "fengyun-1c-debris",
        "lat": 24.13683843781305,
        "lon": -93.34391406081588,
        "alt_km": 872.9268132841635,
        "timestamp": "2025-12-27T22:26:48.884691+00:00",
        "meta_object_name": "FENGYUN 1C DEB",
        "meta_object_id": "1999-025BPJ",
        "meta_epoch": "2025-12-27T05:01:04.221696",
        "meta_mean_motion": 14.15191949,
        "meta_eccentricity": 0.00594493,
        "meta_inclination": 99.541,
        "meta_ra_of_asc_node": 81.5579,
        "meta_arg_of_pericenter": 19.063,
        "meta_mean_anomaly": 38.0781,
        "meta_ephemeris_type": 0,
        "meta_classification_type": "U",
        "meta_norad_cat_id": 31300,
        "meta_element_set_no": 999,
        "meta_rev_at_epoch": 96379,
        "meta_bstar": 0.0012875866,
        "meta_mean_motion_dot": 2.495e-05,
        "meta_mean_motion_ddot": 0,
        "tle_line1": "1 31300U 99025BPJ 25361.20907664  .00002495  00000+0  12876-2 0  9998",
        "tle_line2": "2 31300  99.5410  81.5579 0059449  19.0630  38.0781 14.15191949963797"
      },
      "geometry": {
        "type": "Point",
        "coordinates": [
          -93.34391406081588,
          24.13683843781305
        ]
      }
    }
  ]
}